start=new Date('2022-07-24T00:00:00.000Z').valueOf();
sats=[{"GP_ID":"208733486","COUNTRY_CODE":"US","SEMIMAJOR_AXIS":"6822.342","INCLINATION":"53.0048","OBJECT_ID":"2019-029D","NORAD_CAT_ID":"44238","RCS_SIZE":"LARGE","ARG_OF_PERICENTER":"0.3432","OBJECT_NAME":"STARLINK-24","DECAY_DATE":null,"CLASSIFICATION_TYPE":"U","OBJECT_TYPE":"PAYLOAD","ELEMENT_SET_NO":"999","LAUNCH_DATE":"2019-05-24","MEAN_MOTION":"15.40644674","BSTAR":"0.00253660000000","TIME_SYSTEM":"UTC","EPOCH":"2022-07-23T16:19:01.017696","REV_AT_EPOCH":"17380","SITE":"AFETR","FILE":"3520602","APOAPSIS":"445.298","REF_FRAME":"TEME","EPHEMERIS_TYPE":"0","CENTER_NAME":"EARTH","MEAN_MOTION_DDOT":"0.0000000000000","PERIAPSIS":"443.117","RA_OF_ASC_NODE":"299.5366","TLE_LINE1":"1 44238U 19029D   22204.67987289  .00106028  00000-0  25366-2 0  9999","MEAN_ANOMALY":"359.7572","MEAN_ELEMENT_THEORY":"SGP4","PERIOD":"93.467","TLE_LINE2":"2 44238  53.0048 299.5366 0001598   0.3432 359.7572 15.40644674173806","MEAN_MOTION_DOT":"0.00106028","ECCENTRICITY":"0.00015980"},{"ARG_OF_PERICENTER":"2.1300","RCS_SIZE":"LARGE","NORAD_CAT_ID":"44249","OBJECT_ID":"2019-029Q","INCLINATION":"52.9551","COUNTRY_CODE":"US","GP_ID":"208711041","SEMIMAJOR_AXIS":"6676.362","ELEMENT_SET_NO":"999","OBJECT_TYPE":"PAYLOAD","LAUNCH_DATE":"2019-05-24","CLASSIFICATION_TYPE":"U","OBJECT_NAME":"STARLINK-61","DECAY_DATE":null,"APOAPSIS":"306.140","FILE":"3520436","REF_FRAME":"TEME","EPOCH":"2022-07-23T18:38:34.715616","SITE":"AFETR","REV_AT_EPOCH":"17634","MEAN_MOTION":"15.91449729","TIME_SYSTEM":"UTC","BSTAR":"0.00448570000000","ECCENTRICITY":"0.00118520","MEAN_MOTION_DOT":"0.01468360","MEAN_ANOMALY":"357.9350","TLE_LINE1":"1 44249U 19029Q   22204.77679069  .01468360  10466-2  44857-2 0  9992","RA_OF_ASC_NODE":"242.4527","TLE_LINE2":"2 44249  52.9551 242.4527 0011852   2.1300 357.9350 15.91449729176345","PERIOD":"90.484","MEAN_ELEMENT_THEORY":"SGP4","EPHEMERIS_TYPE":"0","MEAN_MOTION_DDOT":"0.0010466000000","PERIAPSIS":"290.314","CENTER_NAME":"EARTH"},{"OBJECT_NAME":"STARLINK-71","DECAY_DATE":null,"CLASSIFICATION_TYPE":"U","OBJECT_TYPE":"PAYLOAD","ELEMENT_SET_NO":"999","LAUNCH_DATE":"2019-05-24","GP_ID":"208734486","COUNTRY_CODE":"US","SEMIMAJOR_AXIS":"6815.493","INCLINATION":"52.9950","OBJECT_ID":"2019-029T","RCS_SIZE":"LARGE","NORAD_CAT_ID":"44252","ARG_OF_PERICENTER":"24.9147","EPHEMERIS_TYPE":"0","CENTER_NAME":"EARTH","MEAN_MOTION_DDOT":"0.0000000000000","PERIAPSIS":"435.198","TLE_LINE1":"1 44252U 19029T   22204.62865866  .00099706  00000-0  22099-2 0  9990","RA_OF_ASC_NODE":"294.8456","MEAN_ANOMALY":"335.2010","PERIOD":"93.327","MEAN_ELEMENT_THEORY":"SGP4","TLE_LINE2":"2 44252  52.9950 294.8456 0003168  24.9147 335.2010 15.42967886174509","MEAN_MOTION_DOT":"0.00099706","ECCENTRICITY":"0.00031680","MEAN_MOTION":"15.42967886","BSTAR":"0.00220990000000","TIME_SYSTEM":"UTC","EPOCH":"2022-07-23T15:05:16.108224","SITE":"AFETR","REV_AT_EPOCH":"17450","APOAPSIS":"439.517","FILE":"3520602","REF_FRAME":"TEME"},{"SEMIMAJOR_AXIS":"6925.403","COUNTRY_CODE":"US","GP_ID":"208734274","OBJECT_ID":"2019-074A","INCLINATION":"53.0574","ARG_OF_PERICENTER":"80.5938","RCS_SIZE":"LARGE","NORAD_CAT_ID":"44713","DECAY_DATE":null,"OBJECT_NAME":"STARLINK-1007","CLASSIFICATION_TYPE":"U","LAUNCH_DATE":"2019-11-11","ELEMENT_SET_NO":"999","OBJECT_TYPE":"PAYLOAD","BSTAR":"0.00006264900000","TIME_SYSTEM":"UTC","MEAN_MOTION":"15.06382121","REV_AT_EPOCH":"14906","SITE":"AFETR","EPOCH":"2022-07-23T20:16:25.102272","REF_FRAME":"TEME","APOAPSIS":"548.214","FILE":"3520602","MEAN_MOTION_DDOT":"0.0000000000000","PERIAPSIS":"546.323","CENTER_NAME":"EARTH","EPHEMERIS_TYPE":"0","TLE_LINE2":"2 44713  53.0574  14.0689 0001365  80.5938 279.5205 15.06382121149060","MEAN_ELEMENT_THEORY":"SGP4","PERIOD":"95.593","MEAN_ANOMALY":"279.5205","RA_OF_ASC_NODE":"14.0689","TLE_LINE1":"1 44713U 19074A   22204.84473498  .00000651  00000-0  62649-4 0  9990","ECCENTRICITY":"0.00013650","MEAN_MOTION_DOT":"0.00000651"},{"MEAN_MOTION_DOT":"0.00000532","ECCENTRICITY":"0.00014450","PERIOD":"95.592","MEAN_ELEMENT_THEORY":"SGP4","TLE_LINE2":"2 44714  53.0547  14.1799 0001445  78.3439 281.7712 15.06399272149067","TLE_LINE1":"1 44714U 19074B   22204.82355732  .00000532  00000-0  54609-4 0  9994","RA_OF_ASC_NODE":"14.1799","MEAN_ANOMALY":"281.7712","CENTER_NAME":"EARTH","PERIAPSIS":"546.215","MEAN_MOTION_DDOT":"0.0000000000000","EPHEMERIS_TYPE":"0","REF_FRAME":"TEME","APOAPSIS":"548.217","FILE":"3520602","SITE":"AFETR","REV_AT_EPOCH":"14906","EPOCH":"2022-07-23T19:45:55.352448","BSTAR":"0.00005460900000","TIME_SYSTEM":"UTC","MEAN_MOTION":"15.06399272","LAUNCH_DATE":"2019-11-11","OBJECT_TYPE":"PAYLOAD","ELEMENT_SET_NO":"999","CLASSIFICATION_TYPE":"U","DECAY_DATE":null,"OBJECT_NAME":"STARLINK-1008","NORAD_CAT_ID":"44714","RCS_SIZE":"LARGE","ARG_OF_PERICENTER":"78.3439","INCLINATION":"53.0547","OBJECT_ID":"2019-074B","SEMIMAJOR_AXIS":"6925.351","GP_ID":"208735023","COUNTRY_CODE":"US"},{"MEAN_MOTION_DOT":"0.00000313","ECCENTRICITY":"0.00012740","PERIOD":"95.593","MEAN_ELEMENT_THEORY":"SGP4","TLE_LINE2":"2 44715  53.0559  14.2357 0001274  90.5175 269.5960 15.06387488149059","RA_OF_ASC_NODE":"14.2357","TLE_LINE1":"1 44715U 19074C   22204.81250482  .00000313  00000-0  39930-4 0  9997","MEAN_ANOMALY":"269.5960","CENTER_NAME":"EARTH","MEAN_MOTION_DDOT":"0.0000000000000","PERIAPSIS":"546.370","EPHEMERIS_TYPE":"0","REF_FRAME":"TEME","APOAPSIS":"548.134","FILE":"3520602","SITE":"AFETR","REV_AT_EPOCH":"14905","EPOCH":"2022-07-23T19:30:00.416448","BSTAR":"0.00003993000000","TIME_SYSTEM":"UTC","MEAN_MOTION":"15.06387488","LAUNCH_DATE":"2019-11-11","OBJECT_TYPE":"PAYLOAD","ELEMENT_SET_NO":"999","CLASSIFICATION_TYPE":"U","DECAY_DATE":null,"OBJECT_NAME":"STARLINK-1009","NORAD_CAT_ID":"44715","RCS_SIZE":"LARGE","ARG_OF_PERICENTER":"90.5175","INCLINATION":"53.0559","OBJECT_ID":"2019-074C","SEMIMAJOR_AXIS":"6925.387","GP_ID":"208733274","COUNTRY_CODE":"US"},{"OBJECT_NAME":"STARLINK-1010","DECAY_DATE":null,"CLASSIFICATION_TYPE":"U","OBJECT_TYPE":"PAYLOAD","ELEMENT_SET_NO":"999","LAUNCH_DATE":"2019-11-11","GP_ID":"208733524","COUNTRY_CODE":"US","SEMIMAJOR_AXIS":"6925.342","INCLINATION":"53.0543","OBJECT_ID":"2019-074D","RCS_SIZE":"LARGE","NORAD_CAT_ID":"44716","ARG_OF_PERICENTER":"89.9681","EPHEMERIS_TYPE":"0","CENTER_NAME":"EARTH","PERIAPSIS":"546.339","MEAN_MOTION_DDOT":"0.0000000000000","TLE_LINE1":"1 44716U 19074D   22204.83093778  .00001446  00000-0  11595-3 0  9997","RA_OF_ASC_NODE":"14.1554","MEAN_ANOMALY":"270.1451","PERIOD":"95.592","MEAN_ELEMENT_THEORY":"SGP4","TLE_LINE2":"2 44716  53.0543  14.1554 0001254  89.9681 270.1451 15.06402135149042","MEAN_MOTION_DOT":"0.00001446","ECCENTRICITY":"0.00012540","MEAN_MOTION":"15.06402135","TIME_SYSTEM":"UTC","BSTAR":"0.00011595000000","EPOCH":"2022-07-23T19:56:33.024192","REV_AT_EPOCH":"14904","SITE":"AFETR","APOAPSIS":"548.075","FILE":"3520602","REF_FRAME":"TEME"},{"REF_FRAME":"TEME","APOAPSIS":"548.220","FILE":"3520602","TIME_SYSTEM":"UTC","BSTAR":"0.00013847000000","MEAN_MOTION":"15.06398668","SITE":"AFETR","REV_AT_EPOCH":"14878","EPOCH":"2022-07-23T19:53:53.739744","ECCENTRICITY":"0.00014480","MEAN_MOTION_DOT":"0.00001782","PERIAPSIS":"546.215","MEAN_MOTION_DDOT":"0.0000000000000","CENTER_NAME":"EARTH","EPHEMERIS_TYPE":"0","TLE_LINE2":"2 44717  53.0557  34.1396 0001448  69.4518 290.6626 15.06398668148787","MEAN_ELEMENT_THEORY":"SGP4","PERIOD":"95.592","MEAN_ANOMALY":"290.6626","TLE_LINE1":"1 44717U 19074E   22204.82909421  .00001782  00000-0  13847-3 0  9993","RA_OF_ASC_NODE":"34.1396","OBJECT_ID":"2019-074E","INCLINATION":"53.0557","ARG_OF_PERICENTER":"69.4518","NORAD_CAT_ID":"44717","RCS_SIZE":"LARGE","SEMIMAJOR_AXIS":"6925.353","COUNTRY_CODE":"US","GP_ID":"208734773","LAUNCH_DATE":"2019-11-11","ELEMENT_SET_NO":"999","OBJECT_TYPE":"PAYLOAD","DECAY_DATE":null,"OBJECT_NAME":"STARLINK-1011","CLASSIFICATION_TYPE":"U"},{"RCS_SIZE":"LARGE","NORAD_CAT_ID":"44718","ARG_OF_PERICENTER":"89.7630","INCLINATION":"53.0559","OBJECT_ID":"2019-074F","GP_ID":"208734524","COUNTRY_CODE":"US","SEMIMAJOR_AXIS":"6925.372","OBJECT_TYPE":"PAYLOAD","ELEMENT_SET_NO":"999","LAUNCH_DATE":"2019-11-11","CLASSIFICATION_TYPE":"U","OBJECT_NAME":"STARLINK-1012","DECAY_DATE":null,"FILE":"3520602","APOAPSIS":"548.218","REF_FRAME":"TEME","EPOCH":"2022-07-23T17:38:32.175168","SITE":"AFETR","REV_AT_EPOCH":"14904","MEAN_MOTION":"15.06392330","BSTAR":"0.00016119000000","TIME_SYSTEM":"UTC","MEAN_MOTION_DOT":"0.00002120","ECCENTRICITY":"0.00014170","RA_OF_ASC_NODE":"14.5829","TLE_LINE1":"1 44718U 19074F   22204.73509462  .00002120  00000-0  16119-3 0  9997","MEAN_ANOMALY":"270.3521","MEAN_ELEMENT_THEORY":"SGP4","PERIOD":"95.593","TLE_LINE2":"2 44718  53.0559  14.5829 0001417  89.7630 270.3521 15.06392330149048","EPHEMERIS_TYPE":"0","CENTER_NAME":"EARTH","MEAN_MOTION_DDOT":"0.0000000000000","PERIAPSIS":"546.256"},{"REF_FRAME":"TEME","APOAPSIS":"548.058","FILE":"3520602","TIME_SYSTEM":"UTC","BSTAR":"0.00007163700000","MEAN_MOTION":"15.06398686","REV_AT_EPOCH":"15017","SITE":"AFETR","EPOCH":"2022-07-23T17:49:09.400224","ECCENTRICITY":"0.00012130","MEAN_MOTION_DOT":"0.00000786","PERIAPSIS":"546.378","MEAN_MOTION_DDOT":"0.0000000000000","CENTER_NAME":"EARTH","EPHEMERIS_TYPE":"0","TLE_LINE2":"2 44719  53.0553  14.5450 0001213  69.8121 290.2998 15.06398686150176","MEAN_ELEMENT_THEORY":"SGP4","PERIOD":"95.592","MEAN_ANOMALY":"290.2998","TLE_LINE1":"1 44719U 19074G   22204.74246991  .00000786  00000-0  71637-4 0  9997","RA_OF_ASC_NODE":"14.5450","OBJECT_ID":"2019-074G","INCLINATION":"53.0553","ARG_OF_PERICENTER":"69.8121","RCS_SIZE":"LARGE","NORAD_CAT_ID":"44719","SEMIMAJOR_AXIS":"6925.353","COUNTRY_CODE":"US","GP_ID":"208733774","LAUNCH_DATE":"2019-11-11","ELEMENT_SET_NO":"999","OBJECT_TYPE":"PAYLOAD","DECAY_DATE":null,"OBJECT_NAME":"STARLINK-1013","CLASSIFICATION_TYPE":"U"}];
